EOS-6 (OCEANSAT-3)      
1 54361U 22158A   22358.61727784  .00001137  00000+0  32568-3 0  9997
2 54361  98.3549  92.9801 0001267  74.7630 285.3820 14.46825899  4098
2022-158B               
1 54362U 22158B   22357.62175338  .00004359  00000+0  22292-3 0  9992
2 54362  97.4624  92.5508 0024538 151.5724 208.6637 15.16908040  4134
THYBOLT-1               
1 54363U 22158C   22358.37831912  .00014681  00000+0  68717-3 0  9994
2 54363  97.4491  93.2073 0012072 157.8667 272.6558 15.19774795  4254
THYBOLT-2               
1 54364U 22158D   22358.51845648  .00014340  00000+0  67126-3 0  9997
2 54364  97.4475  93.3469 0011965 157.9972 319.3211 15.19778427  4270
INS-2B                  
1 54365U 22158E   22358.45091404  .00014011  00000+0  65186-3 0  9993
2 54365  97.4443  93.2661 0011929 168.0360 323.4516 15.19996480  4267
ANAND                   
1 54366U 22158F   22358.43534190  .00011822  00000+0  54905-3 0  9990
2 54366  97.4417  93.2482 0011050 167.4637 256.3027 15.20107882  4268
ASTROCAST-0304          
1 54367U 22158G   22358.42898328  .00007319  00000+0  33937-3 0  9994
2 54367  97.4465  93.2814 0009226 165.7379 258.0447 15.20321975  4252
ASTROCAST-0303          
1 54368U 22158H   22358.42718531  .00006625  00000+0  30688-3 0  9991
2 54368  97.4480  93.2917 0008978 174.2576 248.2149 15.20394793  4260
ASTROCAST-0302          
1 54369U 22158J   22358.42347326  .00009134  00000+0  41770-3 0  9994
2 54369  97.4478  93.2968 0008601 181.8877 240.5833 15.20734072  4268
ASTROCAST-0301          
1 54370U 22158K   22358.42111178  .00006126  00000+0  28073-3 0  9999
2 54370  97.4487  93.3022 0009170 185.2923 239.0472 15.20794373  4266
DRAGON CRS-26           
1 54371U 22159A   22357.56376573  .00009640  00000+0  17942-3 0  9994
2 54371  51.6419 118.4508 0005698 179.4554 285.1029 15.49550321374554
2022-160A               
1 54372U 22160A   22358.53383624  .00013644  00000+0  57626-3 0  9992
2 54372  34.9995  57.9705 0006025 126.7775   6.9870 15.22432166  4122
2022-160B               
1 54373U 22160B   22358.49679265  .00024640  00000+0  98258-3 0  9991
2 54373  34.9982  57.9744 0007615 140.4346 236.8038 15.24260764  4120
2022-160C               
1 54374U 22160C   22358.46982624  .00010396  00000+0  43792-3 0  9991
2 54374  35.0005  58.4210 0004870 114.5019  11.0108 15.22570008  4070
2022-160D               
1 54375U 22160D   22358.52394676  .00026909  00000+0  10600-2 0  9991
2 54375  34.9989  57.7183 0007853 147.5819  50.9328 15.24653562  4120
2022-160E               
1 54376U 22160E   22358.53779601  .00014914  00000+0  62734-3 0  9997
2 54376  35.0007  58.0053 0007295 140.2178 354.8948 15.22547971  4120
COSMOS 2564 [GLONASS-M] 
1 54377U 22161A   22357.88152240  .00000078  00000+0  00000+0 0  9990
2 54377  64.7776 235.0878 0007279 216.8646  39.2508  2.13102296   537
FREGAT R/B              
1 54378U 22161B   22332.88538517  .00000006  00000+0  00000+0 0  9990
2 54378  64.7543 235.8312 0069964  61.3586  78.3433  2.10629160    00
SHENZHOU-15             
1 54379U 22162A   22357.17715278  .00018343  00000+0  22590-3 0  9997
2 54379  41.4752 148.4058 0004079 197.4974 151.7162 15.59779644 94300
COSMOS 2565             
1 54381U 22163A   22358.22408375 -.00000030  00000+0  32814-4 0  9991
2 54381  67.1549 316.3292 0006848 264.9247  95.1033 13.96673669  3281
SL-4 R/B                
1 54382U 22163B   22358.39925110  .00127504  75884-5  63073-3 0  9994
2 54382  67.1341 305.5480 0444631  70.5236 294.3371 15.07813498  3543
2022-163C               
1 54383U 22163C   22358.50317941 -.00000017  00000+0  41875-4 0  9994
2 54383  67.1420 315.5881 0011605 316.5578  43.4591 13.97183960  3011
1998-067UL              
1 54534U 98067UL  22357.39690656  .00048108  00000+0  78049-3 0  9995
2 54534  51.6411 119.0573 0005320 205.8238 154.2487 15.52247864  3328
1998-067UM              
1 54535U 98067UM  22358.62108749  .00056347  00000+0  89942-3 0  9998
2 54535  51.6419 112.9491 0004349 208.7908 165.9176 15.52637141  3510
1998-067UN              
1 54536U 98067UN  22358.64031358  .00043623  00000+0  70999-3 0  9997
2 54536  51.6429 112.8811 0005498 207.1362 260.9014 15.52201895  3475
1998-067UP              
1 54537U 98067UP  22358.57201424  .00048966  00000+0  78953-3 0  9996
2 54537  51.6413 113.2036 0005276 207.0558 247.7946 15.52412417  3508
2022-164A               
1 54588U 22164A   22358.13518715  .00000843  00000+0  25628-3 0  9996
2 54588  98.3560  25.2289 0008924 223.5554 136.4921 14.44547047  2479
KZ-11 R/B               
1 54589U 22164B   22357.88605325  .00016422  22203-5  18581-3 0  9997
2 54589  98.3690  26.7817 0379390  48.9343 314.4015 15.08016230  2546
2022-165A               
1 54640U 22165A   22358.44722260  .00000576  00000+0  13577-3 0  9995
2 54640  98.1179 296.5971 0001003  94.3088 265.8214 14.57767607  2292
2022-165B               
1 54641U 22165B   22358.18030334  .00000660  00000+0  13024-3 0  9992
2 54641  98.0292 296.2057 0033467 253.0082 106.7447 14.65365069  2259
ONEWEB-0527             
1 54642U 22166A   22358.14322495  .00002350  00000+0  23371-3 0  9996
2 54642  86.5171 151.6280 0008416 177.6221 182.5048 14.91202057  3012
ONEWEB-0528             
1 54643U 22166B   22358.14340680  .00002131  00000+0  21175-3 0  9990
2 54643  86.5184 151.6306 0008384 178.1882 181.9377 14.91185130  3019
ONEWEB-0539             
1 54644U 22166C   22358.14061118  .00002394  00000+0  23650-3 0  9998
2 54644  86.5166 151.6244 0009743 176.4990 183.6307 14.91461581  3011
ONEWEB-0540             
1 54645U 22166D   22358.41297727  .00001857  00000+0  18464-3 0  9996
2 54645  86.5152 151.5058 0008002 180.2286 179.8939 14.91075550  3056
ONEWEB-0542             
1 54646U 22166E   22358.19830258  .00002583  00000+0  24933-3 0  9999
2 54646  86.5173 151.5914 0012999 186.6985 173.4072 14.92384209  3016
ONEWEB-0545             
1 54647U 22166F   22358.41309869 -.00203821  00000+0 -21743-1 0  9998
2 54647  86.5154 151.5065 0008066 177.0496 183.0780 14.90083694  3053
ONEWEB-0580             
1 54648U 22166G   22358.20098786  .00001272  00000+0  12215-3 0  9999
2 54648  86.5159 151.5921 0012682 184.0797 176.0330 14.92122113  3012
ONEWEB-0582             
1 54649U 22166H   22358.40722769  .00002357  00000+0  23183-3 0  9998
2 54649  86.5168 151.5036 0010551 176.2945 183.8363 14.91631456  3051
ONEWEB-0583             
1 54650U 22166J   22358.40564882  .00002391  00000+0  23418-3 0  9999
2 54650  86.5172 151.5056 0011215 176.3200 183.8112 14.91786020  3053
ONEWEB-0584             
1 54651U 22166K   22357.86972488  .00002580  00000+0  25344-3 0  9994
2 54651  86.5166 151.7407 0010794 178.5143 181.6119 14.91715395  2521
ONEWEB-0585             
1 54652U 22166L   22358.14089195  .00002369  00000+0  23421-3 0  9990
2 54652  86.5173 151.6272 0009600 176.4225 183.7073 14.91434016  3016
ONEWEB-0586             
1 54653U 22166M   22357.87762792  .00002433  00000+0  24379-3 0  9996
2 54653  86.5189 151.7523 0007652 186.3249 173.7883 14.90919025  2974
ONEWEB-0587             
1 54654U 22166N   22358.20650669  .00002573  00000+0  25366-3 0  9996
2 54654  86.5179 151.5994 0010286 176.4721 183.6581 14.91577838  3021
ONEWEB-0589             
1 54655U 22166P   22358.19883743  .00008899  00000+0  86610-3 0  9992
2 54655  86.5165 151.5916 0012933 187.0907 173.0140 14.92358922  3011
ONEWEB-0590             
1 54656U 22166Q   22358.19966020  .00002558  00000+0  24783-3 0  9992
2 54656  86.5158 151.5911 0012644 185.4259 174.6834 14.92250624  3017
ONEWEB-0591             
1 54657U 22166R   22358.19997569  .00003239  00000+0  31478-3 0  9991
2 54657  86.5189 151.5937 0012627 184.9892 175.1212 14.92219850  3010
ONEWEB-0592             
1 54658U 22166S   22358.33334491 -.01092350  00000+0 -12942+0 0  9993
2 54658  86.4929 151.5437 0008051 182.6066  94.9567 14.87461012  3037
ONEWEB-0593             
1 54659U 22166T   22358.20567466  .00002586  00000+0  25444-3 0  9994
2 54659  86.5178 151.5989 0010597 177.2418 182.8870 14.91661623  3024
ONEWEB-0594             
1 54660U 22166U   22358.20201605  .00002515  00000+0  24500-3 0  9990
2 54660  86.5172 151.5936 0012126 181.3751 178.7446 14.92019504  3016
ONEWEB-0595             
1 54661U 22166V   22358.20544668  .00002478  00000+0  24347-3 0  9997
2 54661  86.5180 151.5989 0010716 177.1886 182.9404 14.91683161  3026
ONEWEB-0596             
1 54662U 22166W   22357.67027618  .00002364  00000+0  23311-3 0  9993
2 54662  86.5166 151.8308 0010012 178.0207 182.1062 14.91527464  2490
ONEWEB-0597             
1 54663U 22166X   22357.73106345  .00002556  00000+0  24807-3 0  9990
2 54663  86.5156 151.7992 0012502 185.5767 174.5324 14.92168802  2504
ONEWEB-0600             
1 54664U 22166Y   22358.19900352  .00002681  00000+0  25935-3 0  9994
2 54664  86.5162 151.5914 0012797 186.5077 173.5987 14.92318750  3015
ONEWEB-0601             
1 54665U 22166Z   22358.20068246  .00002561  00000+0  24871-3 0  9999
2 54665  86.5187 151.5940 0012518 183.3798 176.7347 14.92152657  3015
ONEWEB-0602             
1 54666U 22166AA  22357.86585980  .00002755  00000+0  26812-3 0  9992
2 54666  86.5183 151.7420 0012333 183.7490 176.3647 14.92101458  2522
ONEWEB-0603             
1 54667U 22166AB  22358.08334491 -.01220754  00000+0 -14701+0 0  9991
2 54667  86.5246 151.6590 0008196 184.8398 186.5848 14.87130158  3004
ONEWEB-0604             
1 54668U 22166AC  22358.66667824 -.00999740  00000+0 -11849+0 0  9992
2 54668  86.4964 151.4040 0008154 180.6290  87.2038 14.87661368  3086
ONEWEB-0605             
1 54669U 22166AD  22358.66667824 -.01278329  00000+0 -16253+0 0  9991
2 54669  86.5301 151.4061 0007917 184.5350  61.4386 14.85071963  3086
ONEWEB-0606             
1 54670U 22166AE  22358.66667824 -.01006604  00000+0 -11727+0 0  9999
2 54670  86.5001 151.4021 0008487 178.8204  98.0133 14.88373271  3084
ONEWEB-0607             
1 54671U 22166AF  22358.41328110 -.00008595  00000+0 -87515-3 0  9997
2 54671  86.5155 151.5061 0008490 183.4575 176.6595 14.90963536  3051
